SEEDS II (CO-66)        
1 32791U 08021J   26068.92109284  .00023758  00000+0  84213-3 0  9995
2 32791  97.7519  62.3611 0001448 359.2618   0.8619 15.29097235972108
STARLINK-32618          
1 62045U 24216P   26068.82131346  .00023302  00000+0  85364-3 0  9990
2 62045  43.0003 255.7603 0001748 269.1618  90.9034 15.27578686 73897
